{
  "type": "FeatureCollection",
  "name": "حدود الجماعات الترابية - عمالة سلا",
  "crs": {
    "type": "name",
    "properties": {
      "name": "urn:ogc:def:crs:EPSG::4326"
    }
  },
  "metadata": {
    "title": "Commune Boundaries - Prefecture of Salé",
    "titleAr": "الحدود الترابية للجماعات - عمالة سلا",
    "source": "Moroccan Official Gazette (الجريدة الرسمية للمملكة المغربية)",
    "coordinateSystem": "WGS84 (EPSG:4326)",
    "originalProjection": "Lambert Conique Conforme Maroc Nord (EPSG:26191)",
    "populationSource": "RGPH 2024 — Haut Commissariat au Plan (HCP)",
    "coordinateOrder": "[longitude, latitude] per GeoJSON spec",
    "generatedAt": "2026-07-18",
    "decree": "قرار وزير الداخلية رقم 1954.24 — الجريدة الرسمية عدد 7340"
  },
  "features": [
    {
      "type": "Feature",
      "properties": {
        "id": "sale",
        "name": "جماعة سلا",
        "nameFr": "Commune de Salé",
        "nameEn": "Municipality of Salé",
        "type": "جماعة ترابية",
        "prefecture": "عمالة سلا",
        "color": "#059669",
        "centroid": {
          "lat": 34.035,
          "lng": -6.760
        },
        "bbox": {
          "minLat": 33.936136,
          "maxLat": 34.096834,
          "minLng": -6.839064,
          "maxLng": -6.690677
        },
        "population": 945101,
        "populationMunicipale": 938475,
        "populationCompteeAPart": 6626,
        "menages": 256144,
        "codeHCP": "04.441.01.0",
        "source": "قرار وزير الداخلية رقم 1954.24 — الجريدة الرسمية عدد 7340",
        "sourceDecree": "قرار رقم 1954.24 صادر في 16 محرم 1446 (يوليو 2024)",
        "sourceGazette": "الجريدة الرسمية عدد 7340"
      },
      "geometry": {
        "type": "Polygon",
        "coordinates": [[
          [-6.780095, 34.096834],
          [-6.775658, 34.093862],
          [-6.774806, 34.094818],
          [-6.767580, 34.090298],
          [-6.768273, 34.089578],
          [-6.739585, 34.070209],
          [-6.738076, 34.070009],
          [-6.737991, 34.070136],
          [-6.737784, 34.070066],
          [-6.737890, 34.069911],
          [-6.739729, 34.064751],
          [-6.737883, 34.063797],
          [-6.736234, 34.060902],
          [-6.735974, 34.061590],
          [-6.732036, 34.059891],
          [-6.730793, 34.059363],
          [-6.729583, 34.052495],
          [-6.724633, 34.049770],
          [-6.726547, 34.047423],
          [-6.723390, 34.045679],
          [-6.726833, 34.041341],
          [-6.732072, 34.040312],
          [-6.730858, 34.037466],
          [-6.731416, 34.037090],
          [-6.721011, 34.028894],
          [-6.720026, 34.031105],
          [-6.718445, 34.033241],
          [-6.716292, 34.032019],
          [-6.716200, 34.030261],
          [-6.717843, 34.028576],
          [-6.720989, 34.025341],
          [-6.719758, 34.024867],
          [-6.702139, 34.029461],
          [-6.690677, 34.032240],
          [-6.720508, 33.999354],
          [-6.719274, 33.996571],
          [-6.702863, 33.993929],
          [-6.715092, 33.983493],
          [-6.720310, 33.983465],
          [-6.728130, 33.977313],
          [-6.732096, 33.973357],
          [-6.730443, 33.968612],
          [-6.755450, 33.941712],
          [-6.751972, 33.937240],
          [-6.752272, 33.937011],
          [-6.758435, 33.940173],
          [-6.759748, 33.939771],
          [-6.760879, 33.939425],
          [-6.794241, 33.936136],
          [-6.810531, 34.005182],
          [-6.805900, 34.018113],
          [-6.807072, 34.019615],
          [-6.832030, 34.030957],
          [-6.833045, 34.030811],
          [-6.839064, 34.038398],
          [-6.838283, 34.039679],
          [-6.832986, 34.039668],
          [-6.791394, 34.082794],
          [-6.780095, 34.096834]
        ]]
      }
    },
    {
      "type": "Feature",
      "properties": {
        "id": "sidi_bouknadel",
        "name": "جماعة سيدي أبي القنادل",
        "nameAr": "بوقنادل",
        "nameFr": "Commune de Sidi Bouknadel",
        "nameEn": "Municipality of Sidi Bouknadel",
        "type": "جماعة ترابية",
        "prefecture": "عمالة سلا",
        "color": "#7c3aed",
        "centroid": {
          "lat": 34.133,
          "lng": -6.713
        },
        "bbox": {
          "minLat": 34.093523,
          "maxLat": 34.175484,
          "minLng": -6.758460,
          "maxLng": -6.692445
        },
        "population": 43598,
        "populationMunicipale": 43550,
        "populationCompteeAPart": 48,
        "menages": 10439,
        "codeHCP": "04.441.01.08",
        "source": "الجريدة الرسمية"
      },
      "geometry": {
        "type": "Polygon",
        "coordinates": [[
          [-6.719511, 34.175484],
          [-6.712372, 34.169806],
          [-6.705725, 34.163544],
          [-6.725992, 34.140245],
          [-6.704692, 34.131676],
          [-6.710436, 34.124952],
          [-6.714715, 34.121110],
          [-6.693344, 34.109500],
          [-6.692547, 34.106965],
          [-6.692445, 34.100149],
          [-6.693199, 34.099059],
          [-6.704140, 34.104293],
          [-6.710380, 34.106185],
          [-6.725832, 34.093523],
          [-6.737998, 34.099391],
          [-6.729121, 34.107999],
          [-6.732494, 34.110209],
          [-6.736474, 34.106731],
          [-6.745494, 34.112316],
          [-6.746670, 34.111221],
          [-6.747427, 34.111844],
          [-6.745107, 34.114611],
          [-6.758460, 34.121961],
          [-6.719511, 34.175484]
        ]]
      }
    },
    {
      "type": "Feature",
      "properties": {
        "id": "ameur",
        "name": "جماعة عامر",
        "nameFr": "Commune rurale d'Ameur",
        "nameEn": "Rural Municipality of Ameur",
        "type": "جماعة قروية",
        "prefecture": "عمالة سلا",
        "color": "#d97706",
        "centroid": {
          "lat": 34.094,
          "lng": -6.666
        },
        "bbox": {
          "minLat": 34.022826,
          "maxLat": 34.163544,
          "minLng": -6.780095,
          "maxLng": -6.551604
        },
        "population": 75942,
        "populationMunicipale": 75896,
        "populationCompteeAPart": 46,
        "menages": 18540,
        "codeHCP": "04.441.01.13",
        "source": "الجريدة الرسمية"
      },
      "geometry": {
        "type": "Polygon",
        "coordinates": [[
          [-6.705725, 34.163544],
          [-6.698631, 34.158577],
          [-6.690391, 34.153720],
          [-6.688765, 34.155261],
          [-6.687088, 34.159976],
          [-6.683327, 34.161629],
          [-6.632536, 34.125074],
          [-6.632457, 34.124109],
          [-6.630924, 34.124602],
          [-6.575326, 34.124414],
          [-6.580745, 34.117870],
          [-6.567051, 34.110658],
          [-6.558051, 34.104888],
          [-6.551604, 34.065087],
          [-6.601625, 34.022826],
          [-6.627763, 34.026072],
          [-6.630222, 34.030711],
          [-6.630835, 34.033464],
          [-6.633962, 34.033993],
          [-6.637407, 34.043122],
          [-6.638656, 34.044850],
          [-6.640272, 34.044987],
          [-6.639471, 34.041992],
          [-6.640730, 34.044432],
          [-6.640570, 34.039303],
          [-6.639445, 34.040179],
          [-6.644064, 34.038943],
          [-6.645966, 34.040115],
          [-6.647790, 34.041909],
          [-6.648743, 34.041900],
          [-6.650415, 34.039908],
          [-6.652116, 34.039891],
          [-6.653809, 34.039324],
          [-6.655856, 34.037094],
          [-6.664807, 34.034317],
          [-6.665405, 34.031515],
          [-6.690677, 34.032240],
          [-6.702139, 34.029461],
          [-6.719765, 34.025354],
          [-6.720982, 34.024854],
          [-6.716175, 34.028593],
          [-6.717868, 34.030244],
          [-6.718445, 34.033241],
          [-6.716292, 34.032019],
          [-6.721011, 34.028894],
          [-6.720026, 34.031105],
          [-6.731416, 34.037090],
          [-6.730858, 34.037466],
          [-6.732072, 34.040312],
          [-6.726833, 34.041341],
          [-6.723390, 34.045679],
          [-6.726547, 34.047423],
          [-6.724633, 34.049770],
          [-6.729583, 34.052495],
          [-6.730793, 34.059363],
          [-6.732036, 34.059891],
          [-6.736234, 34.060902],
          [-6.735974, 34.061590],
          [-6.737883, 34.063797],
          [-6.739729, 34.064751],
          [-6.737890, 34.069911],
          [-6.737784, 34.070066],
          [-6.737991, 34.070136],
          [-6.738076, 34.070009],
          [-6.739585, 34.070209],
          [-6.768273, 34.089578],
          [-6.767580, 34.090298],
          [-6.774806, 34.094818],
          [-6.775658, 34.093862],
          [-6.780095, 34.096834],
          [-6.758460, 34.121961],
          [-6.745107, 34.114611],
          [-6.747427, 34.111844],
          [-6.746670, 34.111221],
          [-6.745494, 34.112316],
          [-6.736474, 34.106731],
          [-6.732494, 34.110209],
          [-6.729121, 34.107999],
          [-6.737998, 34.099391],
          [-6.725832, 34.093523],
          [-6.710380, 34.106185],
          [-6.704140, 34.104293],
          [-6.693199, 34.099059],
          [-6.692445, 34.100149],
          [-6.692547, 34.106965],
          [-6.693344, 34.109500],
          [-6.714715, 34.121110],
          [-6.710436, 34.124952],
          [-6.704692, 34.131676],
          [-6.725992, 34.140245],
          [-6.705725, 34.163544]
        ]]
      }
    }
  ]
}
