<?xml version="1.0" encoding="UTF-8"?>
<kml xmlns="http://www.opengis.net/kml/2.2">
  <Document>
    <name>حدود الجماعات الترابية - عمالة سلا</name>
    <description>Commune boundaries - Prefecture of Salé, Morocco.
Source: Moroccan Official Gazette (الجريدة الرسمية) — Decree 1954.24
Population: RGPH 2024 — HCP
Coordinate system: WGS84 (EPSG:4326)</description>
    <!-- جماعة سلا -->
    <Placemark>
      <name>جماعة سلا (Salé)</name>
      <description>المتوسط: 34.035, -6.760 | السكان: 945,101 | الأسر: 256,144 | المصدر: قرار رقم 1954.24 — الجريدة الرسمية عدد 7340</description>
      <Style>
        <PolyStyle>
          <color>6600669900</color>
          <outline>1</outline>
        </PolyStyle>
        <LineStyle>
          <color>ff006699</color>
          <width>2</width>
        </LineStyle>
      </Style>
      <Polygon>
        <outerBoundaryIs>
          <LinearRing>
            <coordinates>
              -6.780095,34.096834,0 -6.775658,34.093862,0 -6.774806,34.094818,0 -6.767580,34.090298,0 -6.768273,34.089578,0 -6.739585,34.070209,0 -6.738076,34.070009,0 -6.737991,34.070136,0 -6.737784,34.070066,0 -6.737890,34.069911,0 -6.739729,34.064751,0 -6.737883,34.063797,0 -6.736234,34.060902,0 -6.735974,34.061590,0 -6.732036,34.059891,0 -6.730793,34.059363,0 -6.729583,34.052495,0 -6.724633,34.049770,0 -6.726547,34.047423,0 -6.723390,34.045679,0 -6.726833,34.041341,0 -6.732072,34.040312,0 -6.730858,34.037466,0 -6.731416,34.037090,0 -6.721011,34.028894,0 -6.720026,34.031105,0 -6.718445,34.033241,0 -6.716292,34.032019,0 -6.716200,34.030261,0 -6.717843,34.028576,0 -6.720989,34.025341,0 -6.719758,34.024867,0 -6.702139,34.029461,0 -6.690677,34.032240,0 -6.720508,33.999354,0 -6.719274,33.996571,0 -6.702863,33.993929,0 -6.715092,33.983493,0 -6.720310,33.983465,0 -6.728130,33.977313,0 -6.732096,33.973357,0 -6.730443,33.968612,0 -6.755450,33.941712,0 -6.751972,33.937240,0 -6.752272,33.937011,0 -6.758435,33.940173,0 -6.759748,33.939771,0 -6.760879,33.939425,0 -6.794241,33.936136,0 -6.810531,34.005182,0 -6.805900,34.018113,0 -6.807072,34.019615,0 -6.832030,34.030957,0 -6.833045,34.030811,0 -6.839064,34.038398,0 -6.838283,34.039679,0 -6.832986,34.039668,0 -6.791394,34.082794,0 -6.780095,34.096834,0
            </coordinates>
          </LinearRing>
        </outerBoundaryIs>
      </Polygon>
    </Placemark>
    <!-- جماعة سيدي أبي القنادل -->
    <Placemark>
      <name>جماعة سيدي أبي القنادل (Sidi Bouknadel)</name>
      <description>المتوسط: 34.133, -6.713 | السكان: 43,598 | الأسر: 10,439</description>
      <Style>
        <PolyStyle>
          <color>663aed7c</color>
          <outline>1</outline>
        </PolyStyle>
        <LineStyle>
          <color>ff7c3aed</color>
          <width>2</width>
        </LineStyle>
      </Style>
      <Polygon>
        <outerBoundaryIs>
          <LinearRing>
            <coordinates>
              -6.719511,34.175484,0 -6.712372,34.169806,0 -6.705725,34.163544,0 -6.725992,34.140245,0 -6.704692,34.131676,0 -6.710436,34.124952,0 -6.714715,34.121110,0 -6.693344,34.109500,0 -6.692547,34.106965,0 -6.692445,34.100149,0 -6.693199,34.099059,0 -6.704140,34.104293,0 -6.710380,34.106185,0 -6.725832,34.093523,0 -6.737998,34.099391,0 -6.729121,34.107999,0 -6.732494,34.110209,0 -6.736474,34.106731,0 -6.745494,34.112316,0 -6.746670,34.111221,0 -6.747427,34.111844,0 -6.745107,34.114611,0 -6.758460,34.121961,0 -6.719511,34.175484,0
            </coordinates>
          </LinearRing>
        </outerBoundaryIs>
      </Polygon>
    </Placemark>
    <!-- جماعة عامر -->
    <Placemark>
      <name>جماعة عامر (Ameur)</name>
      <description>المتوسط: 34.094, -6.666 | السكان: 75,942 | الأسر: 18,540 | نوع: جماعة قروية</description>
      <Style>
        <PolyStyle>
          <color>660677d9</color>
          <outline>1</outline>
        </PolyStyle>
        <LineStyle>
          <color>ffd97706</color>
          <width>2</width>
        </LineStyle>
      </Style>
      <Polygon>
        <outerBoundaryIs>
          <LinearRing>
            <coordinates>
              -6.705725,34.163544,0 -6.698631,34.158577,0 -6.690391,34.153720,0 -6.688765,34.155261,0 -6.687088,34.159976,0 -6.683327,34.161629,0 -6.632536,34.125074,0 -6.632457,34.124109,0 -6.630924,34.124602,0 -6.575326,34.124414,0 -6.580745,34.117870,0 -6.567051,34.110658,0 -6.558051,34.104888,0 -6.551604,34.065087,0 -6.601625,34.022826,0 -6.627763,34.026072,0 -6.630222,34.030711,0 -6.630835,34.033464,0 -6.633962,34.033993,0 -6.637407,34.043122,0 -6.638656,34.044850,0 -6.640272,34.044987,0 -6.639471,34.041992,0 -6.640730,34.044432,0 -6.640570,34.039303,0 -6.639445,34.040179,0 -6.644064,34.038943,0 -6.645966,34.040115,0 -6.647790,34.041909,0 -6.648743,34.041900,0 -6.650415,34.039908,0 -6.652116,34.039891,0 -6.653809,34.039324,0 -6.655856,34.037094,0 -6.664807,34.034317,0 -6.665405,34.031515,0 -6.690677,34.032240,0 -6.702139,34.029461,0 -6.719765,34.025354,0 -6.720982,34.024854,0 -6.716175,34.028593,0 -6.717868,34.030244,0 -6.718445,34.033241,0 -6.716292,34.032019,0 -6.721011,34.028894,0 -6.720026,34.031105,0 -6.731416,34.037090,0 -6.730858,34.037466,0 -6.732072,34.040312,0 -6.726833,34.041341,0 -6.723390,34.045679,0 -6.726547,34.047423,0 -6.724633,34.049770,0 -6.729583,34.052495,0 -6.730793,34.059363,0 -6.732036,34.059891,0 -6.736234,34.060902,0 -6.735974,34.061590,0 -6.737883,34.063797,0 -6.739729,34.064751,0 -6.737890,34.069911,0 -6.737784,34.070066,0 -6.737991,34.070136,0 -6.738076,34.070009,0 -6.739585,34.070209,0 -6.768273,34.089578,0 -6.767580,34.090298,0 -6.774806,34.094818,0 -6.775658,34.093862,0 -6.780095,34.096834,0 -6.758460,34.121961,0 -6.745107,34.114611,0 -6.747427,34.111844,0 -6.746670,34.111221,0 -6.745494,34.112316,0 -6.736474,34.106731,0 -6.732494,34.110209,0 -6.729121,34.107999,0 -6.737998,34.099391,0 -6.725832,34.093523,0 -6.710380,34.106185,0 -6.704140,34.104293,0 -6.693199,34.099059,0 -6.692445,34.100149,0 -6.692547,34.106965,0 -6.693344,34.109500,0 -6.714715,34.121110,0 -6.710436,34.124952,0 -6.704692,34.131676,0 -6.725992,34.140245,0 -6.705725,34.163544,0
            </coordinates>
          </LinearRing>
        </outerBoundaryIs>
      </Polygon>
    </Placemark>
  </Document>
</kml>
